[{"OBJECT_NAME":"YAOGAN-40 01B","OBJECT_ID":"2023-139C","EPOCH":"2026-03-09T23:20:46.305024","MEAN_MOTION":14.12430239,"ECCENTRICITY":0.00021969,"INCLINATION":85.9905,"RA_OF_ASC_NODE":304.485,"ARG_OF_PERICENTER":92.1535,"MEAN_ANOMALY":267.99,"EPHEMERIS_TYPE":0,"CLASSIFICATION_TYPE":"U","NORAD_CAT_ID":57832,"ELEMENT_SET_NO":999,"REV_AT_EPOCH":12870,"BSTAR":8.6691881e-5,"MEAN_MOTION_DOT":1.79e-6,"MEAN_MOTION_DDOT":0},{"OBJECT_NAME":"THOR ABLESTAR DEB","OBJECT_ID":"1961-015AJ","EPOCH":"2026-03-09T23:21:04.688352","MEAN_MOTION":14.10631782,"ECCENTRICITY":0.01413153,"INCLINATION":65.7748,"RA_OF_ASC_NODE":15.0819,"ARG_OF_PERICENTER":8.5112,"MEAN_ANOMALY":351.8315,"EPHEMERIS_TYPE":0,"CLASSIFICATION_TYPE":"U","NORAD_CAT_ID":148,"ELEMENT_SET_NO":999,"REV_AT_EPOCH":74498,"BSTAR":0.0010345536,"MEAN_MOTION_DOT":1.942e-5,"MEAN_MOTION_DDOT":0}]
